[{"Value":111,"Landuse":"URHD"},{"Value":112,"Landuse":"URMD"},{"Value":121,"Landuse":"UIDU"},{"Value":122,"Landuse":"UIDU"},{"Value":123,"Landuse":"UIDU"},{"Value":124,"Landuse":"UIDU"},{"Value":131,"Landuse":"RNGB"},{"Value":132,"Landuse":"RNGB"},{"Value":133,"Landuse":"RNGB"},{"Value":141,"Landuse":"URLD"},{"Value":142,"Landuse":"URLD"},{"Value":211,"Landuse":"AGRL"},{"Value":212,"Landuse":"AGRL"},{"Value":213,"Landuse":"RICE"},{"Value":221,"Landuse":"GRAP"},{"Value":222,"Landuse":"ORCD"},{"Value":223,"Landuse":"OLIV"},{"Value":231,"Landuse":"PAST"},{"Value":241,"Landuse":"AGRR"},{"Value":242,"Landuse":"AGRR"},{"Value":243,"Landuse":"AGRL"},{"Value":244,"Landuse":"FRSD"},{"Value":311,"Landuse":"FRSD"},{"Value":312,"Landuse":"FRSE"},{"Value":313,"Landuse":"FRST"},{"Value":321,"Landuse":"RNGE"},{"Value":322,"Landuse":"RNGB"},{"Value":323,"Landuse":"RNGB"},{"Value":324,"Landuse":"RNGB"},{"Value":331,"Landuse":"BARR"},{"Value":332,"Landuse":"BARR"},{"Value":333,"Landuse":"BSVG"},{"Value":334,"Landuse":"RNGB"},{"Value":335,"Landuse":"RNGB"},{"Value":411,"Landuse":"WETL"},{"Value":412,"Landuse":"WETL"},{"Value":421,"Landuse":"WETL"},{"Value":422,"Landuse":"WETL"},{"Value":423,"Landuse":"WETL"},{"Value":511,"Landuse":"WATR"},{"Value":512,"Landuse":"WATR"},{"Value":521,"Landuse":"WATR"},{"Value":522,"Landuse":"WATR"},{"Value":523,"Landuse":"WATR"}]